GPS BIIR-2  (PRN 13)    
1 24876U 97035A   25041.60031147 -.00000026  00000+0  00000+0 0  9992
2 24876  55.7538 117.8064 0086807  54.2993 306.5504  2.00562479202091
GPS BIIR-4  (PRN 20)    
1 26360U 00025A   25041.70948948 -.00000061  00000+0  00000+0 0  9991
2 26360  54.8500  39.1804 0039073 229.5893 300.0030  2.00560653181414
GPS BIIR-5  (PRN 22)    
1 26407U 00040A   25041.67998659  .00000050  00000+0  00000+0 0  9997
2 26407  54.9801 234.6935 0135412 298.3806  47.1619  2.00563783180081
GPS BIIR-8  (PRN 16)    
1 27663U 03005A   25041.28893375  .00000055  00000+0  00000+0 0  9997
2 27663  55.0158 234.5197 0143434  49.5191 154.6985  2.00561318161449
GPS BIIR-11 (PRN 19)    
1 28190U 04009A   25041.49665735 -.00000029  00000+0  00000+0 0  9990
2 28190  55.2464 295.4989 0100305 156.5158 351.6745  2.00570995153089
GPS BIIR-13 (PRN 02)    
1 28474U 04045A   25038.40758860 -.00000104  00000+0  00000+0 0  9998
2 28474  55.3691 344.7881 0167141 300.3113 182.2437  2.00563521148501
GPS BIIRM-1 (PRN 17)    
1 28874U 05038A   25041.49322089 -.00000022  00000+0  00000+0 0  9997
2 28874  55.2910 292.9679 0134546 289.0411 243.2424  2.00569223141977
GPS BIIRM-2 (PRN 31)    
1 29486U 06042A   25041.36637846 -.00000026  00000+0  00000+0 0  9993
2 29486  54.6810 170.8491 0104998  45.0604 295.6560  2.00569319134528
GPS BIIRM-3 (PRN 12)    
1 29601U 06052A   25037.82883658  .00000091  00000+0  00000+0 0  9994
2 29601  55.0559 233.6529 0087985  84.4364 276.5955  2.00554729133476
GPS BIIRM-4 (PRN 15)    
1 32260U 07047A   25041.62772959 -.00000022  00000+0  00000+0 0  9993
2 32260  53.7448 100.3724 0158910  79.7095 282.1450  2.00553199126953
GPS BIIRM-5 (PRN 29)    
1 32384U 07062A   25040.70150144 -.00000024  00000+0  00000+0 0  9993
2 32384  55.4365 293.8988 0028587 153.9119  25.9438  2.00560118125637
GPS BIIRM-6 (PRN 07)    
1 32711U 08012A   25041.04001480 -.00000026  00000+0  00000+0 0  9991
2 32711  54.4579 169.5686 0193305 241.3385 116.6629  2.00554416123888
GPS BIIRM-8 (PRN 05)    
1 35752U 09043A   25041.66981649 -.00000046  00000+0  00000+0 0  9998
2 35752  55.8686  46.8215 0053492  74.9732  31.1616  2.00555265113501
GPS BIIF-1  (PRN 25)    
1 36585U 10022A   25041.84068123  .00000043  00000+0  00000+0 0  9991
2 36585  54.3730 228.3653 0121667  63.4382 284.7890  2.00563538107737
GPS BIIF-3  (PRN 24)    
1 38833U 12053A   25041.72215673 -.00000033  00000+0  00000+0 0  9996
2 38833  53.5283 163.7192 0162992  59.7192 301.8411  2.00561424 89586
GPS BIIF-4  (PRN 27)    
1 39166U 13023A   25041.08602469 -.00000013  00000+0  00000+0 0  9994
2 39166  54.9057 288.9708 0131800  46.2416 314.9074  2.00561973 86011
GPS BIIF-5  (PRN 30)    
1 39533U 14008A   25041.08472415 -.00000027  00000+0  00000+0 0  9997
2 39533  53.6082 169.3796 0075341 221.8620 137.5161  2.00555740 79818
GPS BIIF-6  (PRN 06)    
1 39741U 14026A   25041.36890963 -.00000111  00000+0  00000+0 0  9995
2 39741  56.6786 350.6348 0036304 317.9130  41.8005  2.00551456 78677
GPS BIIF-7  (PRN 09)    
1 40105U 14045A   25041.44980658 -.00000023  00000+0  00000+0 0  9994
2 40105  55.0458 108.0860 0028843 118.5896 241.7585  2.00552493 76213
GPS BIIF-8  (PRN 03)    
1 40294U 14068A   25041.32519698 -.00000039  00000+0  00000+0 0  9994
2 40294  56.6221  49.9690 0055245  63.7445 296.8627  2.00575011 75340
GPS BIIF-9  (PRN 26)    
1 40534U 15013A   25040.96487695  .00000049  00000+0  00000+0 0  9992
2 40534  53.2713 224.5446 0097419  34.2032 326.4228  2.00551087 71957
GPS BIIF-10 (PRN 08)    
1 40730U 15033A   25041.12557567 -.00000010  00000+0  00000+0 0  9996
2 40730  54.3863 287.3250 0103631  22.9511 337.5762  2.00554722 70126
GPS BIIF-11 (PRN 10)    
1 41019U 15062A   25041.18334736 -.00000039  00000+0  00000+0 0  9997
2 41019  56.6000  49.8301 0103014 228.1515 131.0028  2.00566651 67966
GPS BIIF-12 (PRN 32)    
1 41328U 16007A   25040.77193944 -.00000030  00000+0  00000+0 0  9999
2 41328  55.2330 109.0087 0086288 241.0404 118.1445  2.00550360 65961
GPS BIII-1  (PRN 04)    
1 43873U 18109A   25041.40038197 -.00000025  00000+0  00000+0 0  9994
2 43873  55.4000 111.6104 0032959 195.9599 153.0186  2.00564633 45204
GPS BIII-2  (PRN 18)    
1 44506U 19056A   25041.54491455 -.00000112  00000+0  00000+0 0  9992
2 44506  55.8133 350.6504 0048741 194.6141 161.6569  2.00560046 40202
GPS BIII-3  (PRN 23)    
1 45854U 20041A   25041.85304580 -.00000044  00000+0  00000+0 0  9995
2 45854  56.3205  48.0712 0050884 199.4566 320.5725  2.00568644 34181
GPS BIII-4  (PRN 14)    
1 46826U 20078A   25040.47497619  .00000063  00000+0  00000+0 0  9998
2 46826  54.0992 230.7677 0053664 198.3978  18.3410  2.00559149 31622
GPS BIII-5  (PRN 11)    
1 48859U 21054A   25040.41230269 -.00000110  00000+0  00000+0 0  9995
2 48859  55.3439 352.2364 0019054 231.3889 127.7036  2.00571271 26866
GPS BIII-6  (PRN 28)    
1 55268U 23009A   25035.37859376  .00000050  00000+0  00000+0 0  9996
2 55268  55.0907 168.0644 0001455  61.5670 298.5690  2.00546882 15261
GPS BIII-7  (PRN 01)    
1 62339U 24242A   25040.37434299 -.00000110  00000+0  00000+0 0  9990
2 62339  54.9955 354.1330 0004620 303.9267 148.8171  2.00555840  1373
